ORBCOMM FM24 [-]        
1 25478U 98053D   23223.44672417  .00001034  00000+0  41291-3 0  9995
2 25478  45.0069 223.1003 0001397 294.4995  65.5706 14.34526141300581
ORBCOMM FM25 [-]        
1 25479U 98053E   23222.99217185  .00001035  00000+0  41340-3 0  9998
2 25479  45.0067 223.4750 0001203 106.9938 253.1041 14.34515368300533
ORBCOMM FM26 [-]        
1 25480U 98053F   23223.67539910  .00000896  00000+0  36719-3 0  9997
2 25480  45.0056 213.4022 0003676 144.8383 215.2707 14.34127604300681
ORBCOMM FM27 [+]        
1 25481U 98053G   23223.67200660  .00001001  00000+0  40136-3 0  9992
2 25481  45.0047 220.5199 0002865 279.6276  80.4247 14.34483265300604
ORBCOMM FM28 [-]        
1 25482U 98053H   23223.12266178  .00001153  00000+0  45022-3 0  9996
2 25482  45.0061 162.5723 0001943 169.2441 190.8448 14.35000812301315
ORBCOMM FM30 [-]        
1 25980U 99065A   23223.45362921  .00000909  00000+0  37072-3 0  9996
2 25980  45.0334  39.6986 0006128 224.1821 135.8537 14.34250672237876
ORBCOMM FM31 [-]        
1 25981U 99065B   23223.77123088  .00000927  00000+0  37685-3 0  9991
2 25981  45.0249  32.1308 0003172 244.2356 115.8164 14.34290318237910
ORBCOMM FM32 [+]        
1 25982U 99065C   23223.34494306  .00000831  00000+0  35000-3 0  9992
2 25982  45.0176  45.9231 0005155 251.4076 108.6210 14.33237127237672
